[{"OBJECT_NAME":"OBJECT Y","OBJECT_ID":"2023-085Y","EPOCH":"2026-03-09T22:38:54.992256","MEAN_MOTION":15.32500153,"ECCENTRICITY":0.00063298,"INCLINATION":97.4849,"RA_OF_ASC_NODE":180.8653,"ARG_OF_PERICENTER":67.4431,"MEAN_ANOMALY":292.748,"EPHEMERIS_TYPE":0,"CLASSIFICATION_TYPE":"U","NORAD_CAT_ID":57026,"ELEMENT_SET_NO":999,"REV_AT_EPOCH":15160,"BSTAR":0.00065512761,"MEAN_MOTION_DOT":0.00020524,"MEAN_MOTION_DDOT":0},{"OBJECT_NAME":"STARLINK-35708","OBJECT_ID":"2025-247N","EPOCH":"2026-03-09T14:45:08.158464","MEAN_MOTION":15.30194602,"ECCENTRICITY":8.26e-5,"INCLINATION":53.1579,"RA_OF_ASC_NODE":191.6852,"ARG_OF_PERICENTER":112.4942,"MEAN_ANOMALY":247.6146,"EPHEMERIS_TYPE":0,"CLASSIFICATION_TYPE":"U","NORAD_CAT_ID":66277,"ELEMENT_SET_NO":999,"REV_AT_EPOCH":2107,"BSTAR":0.00054182,"MEAN_MOTION_DOT":0.00015719,"MEAN_MOTION_DDOT":0}]
